[Satellite]
VERSION=1.1
NAME=GSAT0204 (PRN E22)
NICKNAME=GSAT0204 (PRN E22)
TLE1=1 40545U 15017B   19315.89135212 -.00000066  00000-0  00000+0 0  9994
TLE2=2 40545  56.2827  47.4854 0003408 201.2711 158.7284  1.70475539 28793
STATUS=0
